{
  "norad_id": 68880,
  "name": "KUIPER-00489",
  "history": [
    {
      "epoch": "2026-05-02T10:00:03.000096Z",
      "apogee_km": 463.86264334607495,
      "perigee_km": 450.30430001844707,
      "latitude_deg": 36.41675830327844,
      "longitude_deg": -121.7627369269443,
      "height_km": 453.02981967831886,
      "semi_major_axis_km": 6835.220471682261,
      "eccentricity": 0.0009918,
      "inclination_deg": 51.8739,
      "raan_deg": 103.7386,
      "arg_perigee_deg": 134.4274,
      "mean_anomaly_deg": 356.772,
      "mean_motion_rev_day": 15.36292714
    }
  ]
}