{"fetched_at":"2026-05-03T06:27:58Z","count":17151,"tles":[{"name":"KUIPER-00489","line1":"1 68880U 26095S   26122.41670139  .00068980  00000+0  19104-2 0  9993","line2":"2 68880  51.8739 103.7386 0009918 134.4274 356.7720 15.36292714  1893","category":"Other"}]}